[{"OBJECT_NAME":"STARLINK-30933","OBJECT_ID":"2023-180J","EPOCH":"2026-03-09T14:00:51.710976","MEAN_MOTION":15.27584539,"ECCENTRICITY":3.41e-5,"INCLINATION":42.9954,"RA_OF_ASC_NODE":267.3407,"ARG_OF_PERICENTER":347.1616,"MEAN_ANOMALY":12.9227,"EPHEMERIS_TYPE":0,"CLASSIFICATION_TYPE":"U","NORAD_CAT_ID":58410,"ELEMENT_SET_NO":999,"REV_AT_EPOCH":12932,"BSTAR":-0.00020111,"MEAN_MOTION_DOT":-5.792e-5,"MEAN_MOTION_DDOT":0},{"OBJECT_NAME":"TIANMU-1 20","OBJECT_ID":"2023-208B","EPOCH":"2026-03-09T21:50:45.859200","MEAN_MOTION":15.31029249,"ECCENTRICITY":0.00061925,"INCLINATION":97.4323,"RA_OF_ASC_NODE":185.4313,"ARG_OF_PERICENTER":324.1763,"MEAN_ANOMALY":35.9062,"EPHEMERIS_TYPE":0,"CLASSIFICATION_TYPE":"U","NORAD_CAT_ID":58661,"ELEMENT_SET_NO":999,"REV_AT_EPOCH":12222,"BSTAR":0.0003681641,"MEAN_MOTION_DOT":0.00010969,"MEAN_MOTION_DDOT":0}]
